#aV2021 10  1  0  0  0.00000000     288 DD+AD WGS84 FIT  NGA
## 2177 432000.00000000   300.00000000 59488 0.0000000000000
+   32     1  2  3  4  5  6  7  8  9 10 11 12 13 14 15 16 17
+         18 19 20 21 22 23 24 25 26 27 28 29 30 31 32  0  0
+          0  0  0  0  0  0  0  0  0  0  0  0  0  0  0  0  0
+          0  0  0  0  0  0  0  0  0  0  0  0  0  0  0  0  0
+          0  0  0  0  0  0  0  0  0  0  0  0  0  0  0  0  0
++         2  2  2  2  2  2  2  2  2  2  2  2  2  2  2  2  2
++         2  2  2  2  2  2  2  2  2  2  2  2  2  2  2  0  0
++         0  0  0  0  0  0  0  0  0  0  0  0  0  0  0  0  0
++         0  0  0  0  0  0  0  0  0  0  0  0  0  0  0  0  0
++         0  0  0  0  0  0  0  0  0  0  0  0  0  0  0  0  0
%c cc cc ccc ccc cccc cccc cccc cccc ccccc ccccc ccccc ccccc
%c cc cc ccc ccc cccc cccc cccc cccc ccccc ccccc ccccc ccccc
%f  0.0000000  0.000000000  0.00000000000  0.000000000000000
%f  0.0000000  0.000000000  0.00000000000  0.000000000000000
%i    0    0    0    0      0      0      0      0         0
%i    0    0    0    0      0      0      0      0         0
/*      NGA, ST. LOUIS,MO.                                  
/*   EPHEMERIS COMPUTED FROM 2 DAYS OF DATA                 
/*   EPOCHA v7 SMOOTHER                                     
/*   G2139 IERS2010 SATIGS SATAPC                           
*  2021 10  1 13 10  0.00000000
P  1  17413.265226  13622.559321 -15237.724860    551.777843                    
V  1 -18566.290860  -2364.491865 -23434.971671     -0.108921                    
P  2   6561.425921 -14579.345932  21878.408722   -635.248936                    
V  2  26041.211206   3097.068282  -5848.701683     -0.019472                    
P  3  12572.572563  22616.061008   6128.636948   -308.976663                    
V  3    455.983420   8215.692815 -30626.512424     -0.138218                    
P  4   8684.607459  12843.759543  21561.511033   -204.064567                    
V  4 -18705.255585  19997.008045  -4444.562088      0.002804                    
P  5  -4889.254722 -25054.576156   6861.529505    -56.222057                    
V  5   6081.228742   7226.104606  30146.541620     -0.012561                    
P  6  19937.803034  -7197.355050  16098.130697     85.434615                    
V  6  19679.897013   4986.083986 -22172.909952      0.078367                    
P  7  26008.990468   6374.576033   2049.450436    255.051403                    
V  7  -2580.484069   2221.702973  31088.912271      0.066189                    
P  8  -1079.892751  20098.662318 -17176.009359    -38.505776                    
V  8 -15244.572629  15825.178609  19796.087931     -0.014377                    
P  9  17239.853467   1415.908683  20092.031279   -361.551844                    
V  9 -15373.950362  20604.889089  11673.233408     -0.002665                    
P 10 -14408.186000   4098.894392 -21820.511441   -214.716447                    
V 10  -9541.576921 -26276.312712   1078.897147     -0.079839                    
P 11   8709.512784 -13223.646078  21310.403951     20.380730                    
V 11  26199.591349   6914.434491  -6425.970079      0.011799                    
P 12 -10331.197408 -23952.420689   5111.600732   -105.270850                    
V 12    419.055585  -7155.902856 -31028.209853     -0.054644                    
P 13   9748.740748 -20956.323779 -13096.184556    193.314338                    
V 13  13614.663233  -9448.016567  25685.403096      0.054629                    
P 14  14779.636885  -4119.861702 -21681.202437    -10.101881                    
V 14   8172.111644  26308.495125    518.291805     -0.078091                    
P 15  -2164.202266 -20209.151233 -17315.078786   -117.131734                    
V 15  13761.484868 -16644.397228  18459.942272      0.027583                    
P 16  -1061.539284  24078.688665  10376.977759   -399.815374                    
V 16  -5945.440061 -12593.210400  28394.448517     -0.063250                    
P 17  21080.963620 -10812.399650 -11581.578749    512.801537                    
V 17  -9206.154554  12435.453960 -27335.934242      0.056270                    
P 18 -26119.066362  -5093.595055   -270.340959    315.823966                    
V 18    166.145560  -2482.739574  31880.614508     -0.047186                    
P 19  20736.148901 -16008.311129  -4075.471471     60.152629                    
V 19  -1935.952207   4999.384001 -31728.289437      0.049903                    
P 20   2557.928536 -20723.396256  16535.919709    518.858693                    
V 20  11797.576215  17507.837757  19820.463840     -0.001860                    
P 21  10227.176058  14594.269225 -19177.810148    145.495999                    
V 21 -25673.825286  -1473.947677 -13770.487488      0.018660                    
P 22  10361.972771  24502.977912  -1748.656594   -499.848342                    
V 22  -4125.394618   -699.657869 -30964.181819      0.092389                    
P 23 -17074.499762  -8336.817895 -18613.412577     50.545415                    
V 23  -7283.803618 -22432.082164  16675.277631     -0.047547                    
P 24 -13626.626353 -14708.296769 -17877.434029    245.869273                    
V 24  22170.320269    610.384737 -17256.673996      0.072150                    
P 25 -15894.248532 -16677.829786  13189.167764    217.329321                    
V 25  -3786.030305 -16794.079863 -25030.571709      0.062119                    
P 26  -8759.979631  15770.197476  19342.396928    140.214263                    
V 26 -11026.942227 -22330.901012  13454.821010      0.041042                    
P 27 -10202.755193  22340.773684  -9798.403890   -200.426004                    
V 27  -9738.979293   7848.455116  28920.596799     -0.051173                    
P 28  11514.024704 -11513.505170 -20482.289246    490.777233                    
V 28   7516.729014  26137.648802 -10006.024411     -0.071367                    
P 29 -14780.710591  -5284.109354  21392.324126   -419.883450                    
V 29  18699.465022 -19743.693000   7962.922425     -0.055235                    
P 30  24927.077381  -1863.087682  -9249.609192   -478.255342                    
V 30  10962.827303   5355.529873  28013.140989     -0.036296                    
P 31 -18768.523586   8374.389264  16976.038476   -142.668717                    
V 31 -20812.019046  -5930.190643 -19504.569119     -0.020275                    
P 32 -20281.747846  14279.613443  -9133.686302     -5.708892                    
V 32   5414.275106 -10874.294395 -28839.533066     -0.037751                    
EOF
